{
    "links": {
        "self": "http://www.neowsapp.com/rest/v1/neo/3799651?api_key=iIulBulltgU6a56xZRHN4H3l9WmuAYTsLGpBGhQ2"
    },
    "id": "3799651",
    "neo_reference_id": "3799651",
    "name": "(2018 CJ14)",
    "designation": "2018 CJ14",
    "nasa_jpl_url": "http://ssd.jpl.nasa.gov/sbdb.cgi?sstr=3799651",
    "absolute_magnitude_h": 22.9,
    "estimated_diameter": {
        "kilometers": {
            "estimated_diameter_min": 0.0699125232,
            "estimated_diameter_max": 0.1563291544
        },
        "meters": {
            "estimated_diameter_min": 69.9125232246,
            "estimated_diameter_max": 156.3291544087
        },
        "miles": {
            "estimated_diameter_min": 0.0434416145,
            "estimated_diameter_max": 0.097138403
        },
        "feet": {
            "estimated_diameter_min": 229.3718026961,
            "estimated_diameter_max": 512.8909429502
        }
    },
    "is_potentially_hazardous_asteroid": false,
    "close_approach_data": [
        {
            "close_approach_date": "2018-01-27",
            "close_approach_date_full": "2018-Jan-27 01:41",
            "epoch_date_close_approach": 1517017260000,
            "relative_velocity": {
                "kilometers_per_second": "13.175732085",
                "kilometers_per_hour": "47432.6355061062",
                "miles_per_hour": "29472.7951010025"
            },
            "miss_distance": {
                "astronomical": "0.1693811216",
                "lunar": "65.8892563024",
                "kilometers": "25339055.009570992",
                "miles": "15744958.6795120096"
            },
            "orbiting_body": "Earth"
        }
    ],
    "orbital_data": {
        "orbit_id": "2",
        "orbit_determination_date": "2019-07-17 06:12:40",
        "first_observation_date": "2018-02-12",
        "last_observation_date": "2018-02-18",
        "data_arc_in_days": 6,
        "observations_used": 14,
        "orbit_uncertainty": "9",
        "minimum_orbit_intersection": ".165339",
        "jupiter_tisserand_invariant": "3.466",
        "epoch_osculation": "2458163.5",
        "eccentricity": ".5097865081483055",
        "semi_major_axis": "2.149767248284142",
        "inclination": "19.07727103344809",
        "ascending_node_longitude": "320.5855563243309",
        "orbital_period": "1151.292273492828",
        "perihelion_distance": "1.053844909449778",
        "perihelion_argument": "129.5745623802844",
        "aphelion_distance": "3.245689587118506",
        "perihelion_time": "2458114.187356133149",
        "mean_anomaly": "15.41967422243536",
        "mean_motion": ".3126921011185286",
        "equinox": "J2000",
        "orbit_class": {
            "orbit_class_type": "AMO",
            "orbit_class_description": "Near-Earth asteroid orbits similar to that of 1221 Amor",
            "orbit_class_range": "1.017 AU < q (perihelion) < 1.3 AU"
        }
    },
    "is_sentry_object": false
}